[{"OBJECT_NAME":"STARLINK-36159","OBJECT_ID":"2025-298E","EPOCH":"2026-03-09T22:03:03.380832","MEAN_MOTION":14.99153219,"ECCENTRICITY":0.00023256,"INCLINATION":70.0019,"RA_OF_ASC_NODE":13.8101,"ARG_OF_PERICENTER":251.4113,"MEAN_ANOMALY":108.6794,"EPHEMERIS_TYPE":0,"CLASSIFICATION_TYPE":"U","NORAD_CAT_ID":67079,"ELEMENT_SET_NO":999,"REV_AT_EPOCH":1325,"BSTAR":0.0001811037,"MEAN_MOTION_DOT":2.114e-5,"MEAN_MOTION_DDOT":0},{"OBJECT_NAME":"UNKNOWN","OBJECT_ID":"","EPOCH":"2026-03-07T10:45:42.474528","MEAN_MOTION":13.32766957,"ECCENTRICITY":0.0768452,"INCLINATION":65.6676,"RA_OF_ASC_NODE":228.8005,"ARG_OF_PERICENTER":336.6253,"MEAN_ANOMALY":20.1508,"EPHEMERIS_TYPE":0,"CLASSIFICATION_TYPE":"U","NORAD_CAT_ID":81864,"ELEMENT_SET_NO":999,"REV_AT_EPOCH":56212,"BSTAR":0.0004593,"MEAN_MOTION_DOT":1.157e-5,"MEAN_MOTION_DDOT":0}]
